CORAL                   
1 67684U 98067YA  26089.37987226  .00106857  00000+0  13867-2 0  9993
2 67684  51.6302 328.0728 0012880 250.8406 109.1193 15.57905206  8017
GXIBA-1                 
1 67685U 98067YB  26089.05572195  .00057636  00000+0  87009-3 0  9994
2 67685  51.6323 330.4074 0012014 256.8362 103.1288 15.54098207  7950
UITMSAT-2               
1 67686U 98067YC  26089.04035350  .00070850  00000+0  10299-2 0  9990
2 67686  51.6316 330.3073 0009167 228.7087 131.3115 15.55077953  7956
HMU-SAT2                
1 67687U 98067YD  26089.38241754  .00054544  00000+0  83211-3 0  9992
2 67687  51.6326 328.8427 0008629 233.2686 126.7513 15.53872979  7927
LEOPARD                 
1 67688U 98067YE  26089.36876470  .00062747  00000+0  92783-3 0  9998
2 67688  51.6321 328.7513 0008831 230.5203 129.5007 15.54667702  7924
CREW DRAGON 12          
1 67796U 26031A   26089.35874861  .00011753  00000+0  22376-3 0  9993
2 67796  51.6343 330.1789 0006212 250.3608 109.6710 15.48652900559491
PROGRESS-MS 33          
1 68319U 26058A   26089.35874861  .00011753  00000+0  22376-3 0  9994
2 68319  51.6343 330.1789 0006212 250.3608 109.6710 15.48652900   708
